{
"type": "FeatureCollection",
"name": "kindergartens",
"crs": { "type": "name", "properties": { "name": "urn:ogc:def:crs:OGC:1.3:CRS84" } },
"features": [
{ "type": "Feature", "properties": { "full_id": "r190407", "osm_id": "190407", "osm_type": "relation", "amenity": "kindergarten", "addr:suburb": null, "religion": null, "isced:level": null, "opening_hours": null, "email": null, "alt_name": null, "ref:at:bda": null, "on_the_list:wikipedia": null, "on_the_list:wikidata": null, "heritage:operator": null, "heritage": null, "operator": null, "roof:levels": null, "building:levels": null, "check_date": null, "education": null, "toilets:wheelchair": null, "contact:phone": null, "start_date": null, "wheelchair": null, "addr:place": null, "phone": null, "website": null, "wikidata": "Q108556380", "type": "multipolygon", "name": "Praxiskindergarten / Praxishort der BAfEP", "building": "yes", "at_bev:addr_date": "2020-10-01", "addr:street": "Rechtes Pinkaufer", "addr:postcode": "7400", "addr:housenumber": "15", "addr:country": "AT", "addr:city": "Oberwart" }, "geometry": { "type": "Point", "coordinates": [ 16.206522820939551, 47.284320448895556 ] } },
{ "type": "Feature", "properties": { "full_id": "w30351643", "osm_id": "30351643", "osm_type": "way", "amenity": "kindergarten", "addr:suburb": null, "religion": null, "isced:level": null, "opening_hours": null, "email": null, "alt_name": null, "ref:at:bda": null, "on_the_list:wikipedia": null, "on_the_list:wikidata": null, "heritage:operator": null, "heritage": null, "operator": null, "roof:levels": null, "building:levels": null, "check_date": null, "education": null, "toilets:wheelchair": null, "contact:phone": null, "start_date": null, "wheelchair": null, "addr:place": null, "phone": null, "website": "https://www.kindergarten-pinkafeld.at/", "wikidata": "Q107231012", "type": null, "name": "Kindergarten Pinkafeld", "building": "yes", "at_bev:addr_date": null, "addr:street": "Franz Liszt-Gasse", "addr:postcode": "7423", "addr:housenumber": "40", "addr:country": "AT", "addr:city": "Pinkafeld" }, "geometry": { "type": "Point", "coordinates": [ 16.124816400575604, 47.373613810604731 ] } },
{ "type": "Feature", "properties": { "full_id": "w30352765", "osm_id": "30352765", "osm_type": "way", "amenity": "kindergarten", "addr:suburb": null, "religion": null, "isced:level": null, "opening_hours": null, "email": null, "alt_name": null, "ref:at:bda": null, "on_the_list:wikipedia": null, "on_the_list:wikidata": null, "heritage:operator": null, "heritage": null, "operator": null, "roof:levels": null, "building:levels": null, "check_date": null, "education": null, "toilets:wheelchair": null, "contact:phone": null, "start_date": null, "wheelchair": null, "addr:place": null, "phone": null, "website": null, "wikidata": "Q108556315", "type": null, "name": "Städtischer Kindergarten", "building": "yes", "at_bev:addr_date": "2020-10-01", "addr:street": "Badgasse", "addr:postcode": "7400", "addr:housenumber": "4", "addr:country": "AT", "addr:city": "Oberwart" }, "geometry": { "type": "Point", "coordinates": [ 16.20908770559538, 47.286672356278089 ] } },
{ "type": "Feature", "properties": { "full_id": "w30354602", "osm_id": "30354602", "osm_type": "way", "amenity": "kindergarten", "addr:suburb": null, "religion": null, "isced:level": null, "opening_hours": null, "email": null, "alt_name": null, "ref:at:bda": null, "on_the_list:wikipedia": null, "on_the_list:wikidata": null, "heritage:operator": null, "heritage": null, "operator": null, "roof:levels": null, "building:levels": null, "check_date": null, "education": null, "toilets:wheelchair": null, "contact:phone": null, "start_date": null, "wheelchair": null, "addr:place": null, "phone": null, "website": null, "wikidata": null, "type": null, "name": "Kindergarten", "building": "school", "at_bev:addr_date": null, "addr:street": "Wollingergasse", "addr:postcode": "8380", "addr:housenumber": "4", "addr:country": null, "addr:city": "Jennersdorf" }, "geometry": { "type": "Point", "coordinates": [ 16.144912230561317, 46.936449122697645 ] } },
{ "type": "Feature", "properties": { "full_id": "w52917973", "osm_id": "52917973", "osm_type": "way", "amenity": "kindergarten", "addr:suburb": null, "religion": null, "isced:level": null, "opening_hours": null, "email": null, "alt_name": null, "ref:at:bda": null, "on_the_list:wikipedia": null, "on_the_list:wikidata": null, "heritage:operator": null, "heritage": null, "operator": null, "roof:levels": null, "building:levels": null, "check_date": null, "education": null, "toilets:wheelchair": null, "contact:phone": null, "start_date": null, "wheelchair": null, "addr:place": null, "phone": null, "website": null, "wikidata": null, "type": null, "name": "Kindergarten St.Andrä am Zicksee", "building": null, "at_bev:addr_date": null, "addr:street": null, "addr:postcode": null, "addr:housenumber": null, "addr:country": null, "addr:city": null }, "geometry": { "type": "Point", "coordinates": [ 16.93714787216663, 47.785290654948746 ] } },
{ "type": "Feature", "properties": { "full_id": "w81736993", "osm_id": "81736993", "osm_type": "way", "amenity": "kindergarten", "addr:suburb": null, "religion": null, "isced:level": null, "opening_hours": null, "email": null, "alt_name": null, "ref:at:bda": null, "on_the_list:wikipedia": null, "on_the_list:wikidata": null, "heritage:operator": null, "heritage": null, "operator": null, "roof:levels": null, "building:levels": null, "check_date": null, "education": null, "toilets:wheelchair": null, "contact:phone": null, "start_date": null, "wheelchair": null, "addr:place": null, "phone": null, "website": null, "wikidata": null, "type": null, "name": null, "building": "yes", "at_bev:addr_date": null, "addr:street": null, "addr:postcode": null, "addr:housenumber": null, "addr:country": null, "addr:city": null }, "geometry": { "type": "Point", "coordinates": [ 16.213856112542814, 47.351658225284872 ] } },
{ "type": "Feature", "properties": { "full_id": "w82574964", "osm_id": "82574964", "osm_type": "way", "amenity": "kindergarten", "addr:suburb": null, "religion": null, "isced:level": null, "opening_hours": null, "email": null, "alt_name": null, "ref:at:bda": null, "on_the_list:wikipedia": null, "on_the_list:wikidata": null, "heritage:operator": null, "heritage": null, "operator": null, "roof:levels": null, "building:levels": null, "check_date": null, "education": null, "toilets:wheelchair": null, "contact:phone": null, "start_date": null, "wheelchair": null, "addr:place": null, "phone": null, "website": null, "wikidata": null, "type": null, "name": "Kindergarten Riedlingsdorf", "building": "yes", "at_bev:addr_date": "2019-04-01", "addr:street": "Schulgasse", "addr:postcode": "7422", "addr:housenumber": "3", "addr:country": "AT", "addr:city": "Riedlingsdorf" }, "geometry": { "type": "Point", "coordinates": [ 16.135178034699113, 47.344874453551299 ] } },
{ "type": "Feature", "properties": { "full_id": "w113276746", "osm_id": "113276746", "osm_type": "way", "amenity": "kindergarten", "addr:suburb": null, "religion": null, "isced:level": null, "opening_hours": null, "email": null, "alt_name": null, "ref:at:bda": null, "on_the_list:wikipedia": null, "on_the_list:wikidata": null, "heritage:operator": null, "heritage": null, "operator": null, "roof:levels": null, "building:levels": null, "check_date": null, "education": null, "toilets:wheelchair": null, "contact:phone": null, "start_date": null, "wheelchair": null, "addr:place": null, "phone": null, "website": null, "wikidata": null, "type": null, "name": "Kindergarten", "building": "yes", "at_bev:addr_date": null, "addr:street": "Untere Hauptstraße", "addr:postcode": "2425", "addr:housenumber": "14", "addr:country": "AT", "addr:city": "Nickelsdorf" }, "geometry": { "type": "Point", "coordinates": [ 17.075340286216502, 47.938065622440952 ] } },
{ "type": "Feature", "properties": { "full_id": "w144202999", "osm_id": "144202999", "osm_type": "way", "amenity": "kindergarten", "addr:suburb": null, "religion": null, "isced:level": null, "opening_hours": null, "email": null, "alt_name": null, "ref:at:bda": null, "on_the_list:wikipedia": null, "on_the_list:wikidata": null, "heritage:operator": null, "heritage": null, "operator": null, "roof:levels": null, "building:levels": null, "check_date": null, "education": null, "toilets:wheelchair": null, "contact:phone": null, "start_date": null, "wheelchair": null, "addr:place": null, "phone": "+43 2625 32698", "website": null, "wikidata": null, "type": null, "name": "Kindergarten", "building": "yes", "at_bev:addr_date": null, "addr:street": "Mattersburger Straße", "addr:postcode": "7202", "addr:housenumber": "4", "addr:country": "AT", "addr:city": "Bad Sauerbrunn" }, "geometry": { "type": "Point", "coordinates": [ 16.324597480446865, 47.777327311873456 ] } },
{ "type": "Feature", "properties": { "full_id": "w145335459", "osm_id": "145335459", "osm_type": "way", "amenity": "kindergarten", "addr:suburb": null, "religion": null, "isced:level": null, "opening_hours": null, "email": null, "alt_name": null, "ref:at:bda": null, "on_the_list:wikipedia": null, "on_the_list:wikidata": null, "heritage:operator": null, "heritage": null, "operator": null, "roof:levels": null, "building:levels": null, "check_date": null, "education": null, "toilets:wheelchair": null, "contact:phone": null, "start_date": null, "wheelchair": null, "addr:place": "Rumpersdorf", "phone": null, "website": null, "wikidata": null, "type": null, "name": "Kindergarten", "building": "yes", "at_bev:addr_date": "2019-04-01", "addr:street": null, "addr:postcode": "7463", "addr:housenumber": "24", "addr:country": "AT", "addr:city": "Weiden bei Rechnitz" }, "geometry": { "type": "Point", "coordinates": [ 16.32601805, 47.31545985 ] } },
{ "type": "Feature", "properties": { "full_id": "w154165991", "osm_id": "154165991", "osm_type": "way", "amenity": "kindergarten", "addr:suburb": null, "religion": null, "isced:level": null, "opening_hours": null, "email": null, "alt_name": null, "ref:at:bda": null, "on_the_list:wikipedia": null, "on_the_list:wikidata": null, "heritage:operator": null, "heritage": null, "operator": null, "roof:levels": null, "building:levels": null, "check_date": null, "education": null, "toilets:wheelchair": null, "contact:phone": null, "start_date": null, "wheelchair": "no", "addr:place": null, "phone": null, "website": null, "wikidata": null, "type": null, "name": "Kindergarten Zillingtal", "building": "yes", "at_bev:addr_date": "2020-10-01", "addr:street": "Schulgasse", "addr:postcode": "7034", "addr:housenumber": "1", "addr:country": "AT", "addr:city": "Zillingtal" }, "geometry": { "type": "Point", "coordinates": [ 16.408726392583095, 47.814486451278469 ] } },
{ "type": "Feature", "properties": { "full_id": "w156074141", "osm_id": "156074141", "osm_type": "way", "amenity": "kindergarten", "addr:suburb": null, "religion": null, "isced:level": null, "opening_hours": null, "email": null, "alt_name": null, "ref:at:bda": null, "on_the_list:wikipedia": null, "on_the_list:wikidata": null, "heritage:operator": null, "heritage": null, "operator": null, "roof:levels": null, "building:levels": null, "check_date": null, "education": null, "toilets:wheelchair": null, "contact:phone": null, "start_date": "1978", "wheelchair": null, "addr:place": null, "phone": null, "website": null, "wikidata": null, "type": null, "name": "Kindergarten", "building": "yes", "at_bev:addr_date": null, "addr:street": "Kirchenweg", "addr:postcode": null, "addr:housenumber": "2", "addr:country": null, "addr:city": null }, "geometry": { "type": "Point", "coordinates": [ 16.258829012280628, 47.169585377545864 ] } },
{ "type": "Feature", "properties": { "full_id": "w162892237", "osm_id": "162892237", "osm_type": "way", "amenity": "kindergarten", "addr:suburb": null, "religion": null, "isced:level": null, "opening_hours": null, "email": null, "alt_name": null, "ref:at:bda": null, "on_the_list:wikipedia": null, "on_the_list:wikidata": null, "heritage:operator": null, "heritage": null, "operator": null, "roof:levels": null, "building:levels": null, "check_date": null, "education": null, "toilets:wheelchair": null, "contact:phone": "+43 3327 8162", "start_date": null, "wheelchair": null, "addr:place": null, "phone": null, "website": null, "wikidata": null, "type": null, "name": "Kindergarten Sankt Michael", "building": "kindergarten", "at_bev:addr_date": "2017-10-01", "addr:street": "Meierhofgasse", "addr:postcode": "7535", "addr:housenumber": "163", "addr:country": "AT", "addr:city": "Sankt Michael im Burgenland" }, "geometry": { "type": "Point", "coordinates": [ 16.268822047220667, 47.127564830804587 ] } },
{ "type": "Feature", "properties": { "full_id": "w163683044", "osm_id": "163683044", "osm_type": "way", "amenity": "kindergarten", "addr:suburb": null, "religion": null, "isced:level": null, "opening_hours": null, "email": null, "alt_name": null, "ref:at:bda": null, "on_the_list:wikipedia": null, "on_the_list:wikidata": null, "heritage:operator": null, "heritage": null, "operator": null, "roof:levels": null, "building:levels": null, "check_date": null, "education": null, "toilets:wheelchair": null, "contact:phone": null, "start_date": null, "wheelchair": null, "addr:place": null, "phone": null, "website": null, "wikidata": null, "type": null, "name": "Kidergarten Kukmirn", "building": "yes", "at_bev:addr_date": "2018-10-01", "addr:street": "Obere Dorfstraße", "addr:postcode": "7543", "addr:housenumber": "37", "addr:country": "AT", "addr:city": "Kukmirn" }, "geometry": { "type": "Point", "coordinates": [ 16.205888993794279, 47.069094088919812 ] } },
{ "type": "Feature", "properties": { "full_id": "w173245371", "osm_id": "173245371", "osm_type": "way", "amenity": "kindergarten", "addr:suburb": null, "religion": null, "isced:level": null, "opening_hours": null, "email": null, "alt_name": null, "ref:at:bda": null, "on_the_list:wikipedia": null, "on_the_list:wikidata": null, "heritage:operator": null, "heritage": null, "operator": null, "roof:levels": null, "building:levels": null, "check_date": null, "education": null, "toilets:wheelchair": null, "contact:phone": null, "start_date": null, "wheelchair": null, "addr:place": null, "phone": null, "website": null, "wikidata": null, "type": null, "name": null, "building": null, "at_bev:addr_date": null, "addr:street": null, "addr:postcode": null, "addr:housenumber": null, "addr:country": null, "addr:city": null }, "geometry": { "type": "Point", "coordinates": [ 16.674779815253341, 47.802572355600653 ] } },
{ "type": "Feature", "properties": { "full_id": "w174686454", "osm_id": "174686454", "osm_type": "way", "amenity": "kindergarten", "addr:suburb": null, "religion": null, "isced:level": null, "opening_hours": null, "email": null, "alt_name": null, "ref:at:bda": null, "on_the_list:wikipedia": null, "on_the_list:wikidata": null, "heritage:operator": null, "heritage": null, "operator": null, "roof:levels": null, "building:levels": null, "check_date": null, "education": null, "toilets:wheelchair": null, "contact:phone": null, "start_date": null, "wheelchair": null, "addr:place": null, "phone": null, "website": null, "wikidata": null, "type": null, "name": "Kindergarten Mariasdorf", "building": "school", "at_bev:addr_date": null, "addr:street": null, "addr:postcode": null, "addr:housenumber": null, "addr:country": null, "addr:city": null }, "geometry": { "type": "Point", "coordinates": [ 16.22915310010012, 47.368897957227645 ] } },
{ "type": "Feature", "properties": { "full_id": "w175325571", "osm_id": "175325571", "osm_type": "way", "amenity": "kindergarten", "addr:suburb": null, "religion": null, "isced:level": null, "opening_hours": null, "email": null, "alt_name": null, "ref:at:bda": null, "on_the_list:wikipedia": null, "on_the_list:wikidata": null, "heritage:operator": null, "heritage": null, "operator": null, "roof:levels": null, "building:levels": null, "check_date": null, "education": null, "toilets:wheelchair": "yes", "contact:phone": null, "start_date": null, "wheelchair": "yes", "addr:place": null, "phone": null, "website": "https://www.jois.at/de/bildung_gesundheit/kindergarten/", "wikidata": null, "type": null, "name": null, "building": null, "at_bev:addr_date": "2019-10-01", "addr:street": "Kindergartenstraße", "addr:postcode": "7093", "addr:housenumber": "1", "addr:country": "AT", "addr:city": "Jois" }, "geometry": { "type": "Point", "coordinates": [ 16.79815204657206, 47.959229814648097 ] } },
{ "type": "Feature", "properties": { "full_id": "w180705824", "osm_id": "180705824", "osm_type": "way", "amenity": "kindergarten", "addr:suburb": null, "religion": null, "isced:level": null, "opening_hours": null, "email": null, "alt_name": null, "ref:at:bda": null, "on_the_list:wikipedia": null, "on_the_list:wikidata": null, "heritage:operator": null, "heritage": null, "operator": null, "roof:levels": null, "building:levels": null, "check_date": null, "education": null, "toilets:wheelchair": null, "contact:phone": null, "start_date": null, "wheelchair": null, "addr:place": null, "phone": null, "website": null, "wikidata": null, "type": null, "name": "Kindergarten Parndorf Schulgasse", "building": null, "at_bev:addr_date": null, "addr:street": null, "addr:postcode": null, "addr:housenumber": null, "addr:country": null, "addr:city": null }, "geometry": { "type": "Point", "coordinates": [ 16.86406784213569, 47.997759758961507 ] } },
{ "type": "Feature", "properties": { "full_id": "w184870132", "osm_id": "184870132", "osm_type": "way", "amenity": "kindergarten", "addr:suburb": null, "religion": null, "isced:level": null, "opening_hours": null, "email": null, "alt_name": null, "ref:at:bda": null, "on_the_list:wikipedia": null, "on_the_list:wikidata": null, "heritage:operator": null, "heritage": null, "operator": null, "roof:levels": null, "building:levels": null, "check_date": null, "education": null, "toilets:wheelchair": null, "contact:phone": null, "start_date": null, "wheelchair": null, "addr:place": null, "phone": null, "website": null, "wikidata": null, "type": null, "name": "Kindergarten Apetlon", "building": null, "at_bev:addr_date": null, "addr:street": null, "addr:postcode": null, "addr:housenumber": null, "addr:country": null, "addr:city": null }, "geometry": { "type": "Point", "coordinates": [ 16.829257868497201, 47.743453039002155 ] } },
{ "type": "Feature", "properties": { "full_id": "w189671582", "osm_id": "189671582", "osm_type": "way", "amenity": "kindergarten", "addr:suburb": null, "religion": null, "isced:level": null, "opening_hours": null, "email": null, "alt_name": null, "ref:at:bda": null, "on_the_list:wikipedia": null, "on_the_list:wikidata": null, "heritage:operator": null, "heritage": null, "operator": null, "roof:levels": null, "building:levels": null, "check_date": null, "education": null, "toilets:wheelchair": null, "contact:phone": null, "start_date": null, "wheelchair": "yes", "addr:place": null, "phone": null, "website": null, "wikidata": null, "type": null, "name": "Montessori-Kinderhaus Kalvarienberg", "building": null, "at_bev:addr_date": null, "addr:street": null, "addr:postcode": null, "addr:housenumber": null, "addr:country": null, "addr:city": null }, "geometry": { "type": "Point", "coordinates": [ 16.859061298799652, 47.942834191659024 ] } },
{ "type": "Feature", "properties": { "full_id": "w191986254", "osm_id": "191986254", "osm_type": "way", "amenity": "kindergarten", "addr:suburb": null, "religion": null, "isced:level": null, "opening_hours": null, "email": null, "alt_name": null, "ref:at:bda": null, "on_the_list:wikipedia": null, "on_the_list:wikidata": null, "heritage:operator": null, "heritage": null, "operator": null, "roof:levels": null, "building:levels": null, "check_date": null, "education": null, "toilets:wheelchair": null, "contact:phone": null, "start_date": null, "wheelchair": null, "addr:place": "Hagensdorf im Burgenland", "phone": null, "website": null, "wikidata": null, "type": null, "name": "Kindergarten Hagensdorf", "building": "kindergarten", "at_bev:addr_date": "2018-10-01", "addr:street": null, "addr:postcode": "7522", "addr:housenumber": "90", "addr:country": "AT", "addr:city": "Heiligenbrunn" }, "geometry": { "type": "Point", "coordinates": [ 16.457794208948684, 47.014266601945273 ] } },
{ "type": "Feature", "properties": { "full_id": "w194188699", "osm_id": "194188699", "osm_type": "way", "amenity": "kindergarten", "addr:suburb": null, "religion": null, "isced:level": null, "opening_hours": null, "email": null, "alt_name": null, "ref:at:bda": null, "on_the_list:wikipedia": null, "on_the_list:wikidata": null, "heritage:operator": null, "heritage": null, "operator": null, "roof:levels": null, "building:levels": null, "check_date": null, "education": null, "toilets:wheelchair": null, "contact:phone": "+43 2683 3433", "start_date": null, "wheelchair": "limited", "addr:place": null, "phone": null, "website": null, "wikidata": null, "type": null, "name": null, "building": "yes", "at_bev:addr_date": null, "addr:street": "Am Bruckertor", "addr:postcode": "7083", "addr:housenumber": "20", "addr:country": "AT", "addr:city": "Purbach am Neusiedler See" }, "geometry": { "type": "Point", "coordinates": [ 16.697873265782963, 47.915045644819813 ] } },
{ "type": "Feature", "properties": { "full_id": "w212342270", "osm_id": "212342270", "osm_type": "way", "amenity": "kindergarten", "addr:suburb": null, "religion": null, "isced:level": null, "opening_hours": null, "email": null, "alt_name": null, "ref:at:bda": null, "on_the_list:wikipedia": null, "on_the_list:wikidata": null, "heritage:operator": null, "heritage": null, "operator": null, "roof:levels": null, "building:levels": null, "check_date": null, "education": null, "toilets:wheelchair": null, "contact:phone": null, "start_date": null, "wheelchair": null, "addr:place": null, "phone": null, "website": null, "wikidata": null, "type": null, "name": null, "building": "yes", "at_bev:addr_date": "2019-04-01", "addr:street": "Zollikofenplatz", "addr:postcode": "7201", "addr:housenumber": "2", "addr:country": "AT", "addr:city": "Neudörfl" }, "geometry": { "type": "Point", "coordinates": [ 16.293335285482829, 47.799704604493925 ] } },
{ "type": "Feature", "properties": { "full_id": "w236702429", "osm_id": "236702429", "osm_type": "way", "amenity": "kindergarten", "addr:suburb": null, "religion": null, "isced:level": null, "opening_hours": null, "email": null, "alt_name": null, "ref:at:bda": null, "on_the_list:wikipedia": null, "on_the_list:wikidata": null, "heritage:operator": null, "heritage": null, "operator": null, "roof:levels": null, "building:levels": null, "check_date": null, "education": "kindergarten", "toilets:wheelchair": null, "contact:phone": null, "start_date": null, "wheelchair": null, "addr:place": null, "phone": null, "website": null, "wikidata": null, "type": null, "name": "Kindergarten Stinatz", "building": "yes", "at_bev:addr_date": null, "addr:street": "Hauptplatz", "addr:postcode": "7552", "addr:housenumber": "4a", "addr:country": "AT", "addr:city": "Stinatz/Stinjaki" }, "geometry": { "type": "Point", "coordinates": [ 16.135629017684096, 47.204353512474029 ] } },
{ "type": "Feature", "properties": { "full_id": "w260697558", "osm_id": "260697558", "osm_type": "way", "amenity": "kindergarten", "addr:suburb": null, "religion": null, "isced:level": null, "opening_hours": null, "email": null, "alt_name": null, "ref:at:bda": null, "on_the_list:wikipedia": null, "on_the_list:wikidata": null, "heritage:operator": null, "heritage": null, "operator": null, "roof:levels": null, "building:levels": null, "check_date": "2023-10-06", "education": null, "toilets:wheelchair": null, "contact:phone": null, "start_date": null, "wheelchair": null, "addr:place": null, "phone": null, "website": null, "wikidata": null, "type": null, "name": "Kindergarten Markt Sankt Martin", "building": "yes", "at_bev:addr_date": null, "addr:street": null, "addr:postcode": null, "addr:housenumber": null, "addr:country": null, "addr:city": null }, "geometry": { "type": "Point", "coordinates": [ 16.426396751849566, 47.563432266782883 ] } },
{ "type": "Feature", "properties": { "full_id": "w266890768", "osm_id": "266890768", "osm_type": "way", "amenity": "kindergarten", "addr:suburb": null, "religion": null, "isced:level": null, "opening_hours": null, "email": null, "alt_name": null, "ref:at:bda": null, "on_the_list:wikipedia": null, "on_the_list:wikidata": null, "heritage:operator": null, "heritage": null, "operator": null, "roof:levels": null, "building:levels": null, "check_date": null, "education": null, "toilets:wheelchair": null, "contact:phone": null, "start_date": null, "wheelchair": null, "addr:place": null, "phone": null, "website": null, "wikidata": null, "type": null, "name": "Kindergarten Mörbisch", "building": "yes", "at_bev:addr_date": "2019-10-01", "addr:street": "Raiffeisenstraße", "addr:postcode": "7072", "addr:housenumber": "12", "addr:country": "AT", "addr:city": "Mörbisch am See" }, "geometry": { "type": "Point", "coordinates": [ 16.666982189271117, 47.75053930552405 ] } },
{ "type": "Feature", "properties": { "full_id": "w285340201", "osm_id": "285340201", "osm_type": "way", "amenity": "kindergarten", "addr:suburb": null, "religion": null, "isced:level": null, "opening_hours": null, "email": null, "alt_name": null, "ref:at:bda": null, "on_the_list:wikipedia": null, "on_the_list:wikidata": null, "heritage:operator": null, "heritage": null, "operator": null, "roof:levels": "0", "building:levels": "1", "check_date": null, "education": null, "toilets:wheelchair": null, "contact:phone": null, "start_date": null, "wheelchair": null, "addr:place": null, "phone": null, "website": null, "wikidata": null, "type": null, "name": "Kindergarten", "building": "kindergarten", "at_bev:addr_date": null, "addr:street": null, "addr:postcode": null, "addr:housenumber": null, "addr:country": null, "addr:city": null }, "geometry": { "type": "Point", "coordinates": [ 16.450150815742745, 47.879615735690422 ] } },
{ "type": "Feature", "properties": { "full_id": "w289120093", "osm_id": "289120093", "osm_type": "way", "amenity": "kindergarten", "addr:suburb": null, "religion": null, "isced:level": null, "opening_hours": null, "email": null, "alt_name": null, "ref:at:bda": null, "on_the_list:wikipedia": null, "on_the_list:wikidata": null, "heritage:operator": null, "heritage": null, "operator": null, "roof:levels": null, "building:levels": null, "check_date": null, "education": null, "toilets:wheelchair": null, "contact:phone": null, "start_date": null, "wheelchair": null, "addr:place": null, "phone": null, "website": null, "wikidata": null, "type": null, "name": null, "building": "residential", "at_bev:addr_date": "2019-10-01", "addr:street": "Kirchengasse", "addr:postcode": "7091", "addr:housenumber": "37", "addr:country": "AT", "addr:city": "Breitenbrunn am Neusiedler See" }, "geometry": { "type": "Point", "coordinates": [ 16.736624908168068, 47.944080877781914 ] } },
{ "type": "Feature", "properties": { "full_id": "w300746020", "osm_id": "300746020", "osm_type": "way", "amenity": "kindergarten", "addr:suburb": null, "religion": null, "isced:level": null, "opening_hours": null, "email": null, "alt_name": null, "ref:at:bda": null, "on_the_list:wikipedia": null, "on_the_list:wikidata": null, "heritage:operator": null, "heritage": null, "operator": "Magistrat der Landeshauptstadt Freistadt Eisenstadt", "roof:levels": null, "building:levels": null, "check_date": "2023-05-09", "education": null, "toilets:wheelchair": null, "contact:phone": null, "start_date": null, "wheelchair": null, "addr:place": null, "phone": null, "website": null, "wikidata": null, "type": null, "name": "Kindergarten Kasernenstraße", "building": null, "at_bev:addr_date": null, "addr:street": "Kasernenstraße", "addr:postcode": "7000", "addr:housenumber": "7b", "addr:country": null, "addr:city": "Eisenstadt" }, "geometry": { "type": "Point", "coordinates": [ 16.538398315725729, 47.855736873744505 ] } },
{ "type": "Feature", "properties": { "full_id": "w310944776", "osm_id": "310944776", "osm_type": "way", "amenity": "kindergarten", "addr:suburb": null, "religion": null, "isced:level": null, "opening_hours": null, "email": null, "alt_name": null, "ref:at:bda": null, "on_the_list:wikipedia": null, "on_the_list:wikidata": null, "heritage:operator": null, "heritage": null, "operator": null, "roof:levels": null, "building:levels": null, "check_date": null, "education": null, "toilets:wheelchair": null, "contact:phone": null, "start_date": null, "wheelchair": null, "addr:place": null, "phone": null, "website": "https://www.poettsching.at/Kindergarten", "wikidata": null, "type": null, "name": null, "building": "yes", "at_bev:addr_date": "2019-04-01", "addr:street": "Friedhofsweg", "addr:postcode": "7033", "addr:housenumber": "3", "addr:country": "AT", "addr:city": "Pöttsching" }, "geometry": { "type": "Point", "coordinates": [ 16.369355119994019, 47.806993107033755 ] } },
{ "type": "Feature", "properties": { "full_id": "w336700387", "osm_id": "336700387", "osm_type": "way", "amenity": "kindergarten", "addr:suburb": null, "religion": null, "isced:level": null, "opening_hours": null, "email": null, "alt_name": null, "ref:at:bda": "8502", "on_the_list:wikipedia": "de:Liste der denkmalgeschützten Objekte in Schachendorf", "on_the_list:wikidata": "Q38128446", "heritage:operator": "bda", "heritage": "2", "operator": null, "roof:levels": null, "building:levels": null, "check_date": null, "education": null, "toilets:wheelchair": null, "contact:phone": null, "start_date": null, "wheelchair": null, "addr:place": "Schachendorf", "phone": null, "website": null, "wikidata": null, "type": null, "name": "Kindergarten Schachendorf", "building": "yes", "at_bev:addr_date": null, "addr:street": null, "addr:postcode": "7472", "addr:housenumber": "143", "addr:country": "AT", "addr:city": "Schachendorf" }, "geometry": { "type": "Point", "coordinates": [ 16.436715777736477, 47.263282699684041 ] } },
{ "type": "Feature", "properties": { "full_id": "w336844285", "osm_id": "336844285", "osm_type": "way", "amenity": "kindergarten", "addr:suburb": null, "religion": null, "isced:level": null, "opening_hours": null, "email": null, "alt_name": "KIM-Kinder in die Mitte", "ref:at:bda": null, "on_the_list:wikipedia": null, "on_the_list:wikidata": null, "heritage:operator": null, "heritage": null, "operator": null, "roof:levels": null, "building:levels": null, "check_date": null, "education": null, "toilets:wheelchair": null, "contact:phone": null, "start_date": null, "wheelchair": null, "addr:place": null, "phone": null, "website": null, "wikidata": null, "type": null, "name": "Caritas Kindergarten", "building": "yes", "at_bev:addr_date": null, "addr:street": "Kirchengasse", "addr:postcode": "7533", "addr:housenumber": "42", "addr:country": "AT", "addr:city": null }, "geometry": { "type": "Point", "coordinates": [ 16.156821702293122, 47.179021620019697 ] } },
{ "type": "Feature", "properties": { "full_id": "w337178392", "osm_id": "337178392", "osm_type": "way", "amenity": "kindergarten", "addr:suburb": null, "religion": null, "isced:level": null, "opening_hours": "Mo-Th 07:00-16:30; Fr 07:00-14:00", "email": "kindergarten.wiesen@bnet.at", "alt_name": null, "ref:at:bda": null, "on_the_list:wikipedia": null, "on_the_list:wikidata": null, "heritage:operator": null, "heritage": null, "operator": "Gemeinde Wiesen", "roof:levels": null, "building:levels": null, "check_date": null, "education": null, "toilets:wheelchair": null, "contact:phone": null, "start_date": null, "wheelchair": null, "addr:place": null, "phone": "+432626 81765", "website": "https://www.wiesen.eu/cms-wiesen/front_content.php?idcat=118", "wikidata": null, "type": null, "name": "Kindergarten Wiesen", "building": "yes", "at_bev:addr_date": "2019-04-01", "addr:street": "Gartengasse", "addr:postcode": "7203", "addr:housenumber": "13", "addr:country": "AT", "addr:city": "Wiesen" }, "geometry": { "type": "Point", "coordinates": [ 16.336064775221175, 47.739748258547607 ] } },
{ "type": "Feature", "properties": { "full_id": "w361053278", "osm_id": "361053278", "osm_type": "way", "amenity": "kindergarten", "addr:suburb": null, "religion": null, "isced:level": null, "opening_hours": null, "email": null, "alt_name": null, "ref:at:bda": null, "on_the_list:wikipedia": null, "on_the_list:wikidata": null, "heritage:operator": null, "heritage": null, "operator": "Gemeinde Gols", "roof:levels": null, "building:levels": null, "check_date": "2024-08-12", "education": null, "toilets:wheelchair": null, "contact:phone": null, "start_date": null, "wheelchair": null, "addr:place": null, "phone": null, "website": null, "wikidata": null, "type": null, "name": "Kindergarten Gols", "building": null, "at_bev:addr_date": null, "addr:street": null, "addr:postcode": null, "addr:housenumber": null, "addr:country": null, "addr:city": null }, "geometry": { "type": "Point", "coordinates": [ 16.920110834455514, 47.89584151675276 ] } },
{ "type": "Feature", "properties": { "full_id": "w363620406", "osm_id": "363620406", "osm_type": "way", "amenity": "kindergarten", "addr:suburb": null, "religion": null, "isced:level": null, "opening_hours": null, "email": null, "alt_name": null, "ref:at:bda": null, "on_the_list:wikipedia": null, "on_the_list:wikidata": null, "heritage:operator": null, "heritage": null, "operator": null, "roof:levels": null, "building:levels": null, "check_date": null, "education": null, "toilets:wheelchair": null, "contact:phone": null, "start_date": null, "wheelchair": null, "addr:place": null, "phone": null, "website": null, "wikidata": null, "type": null, "name": "Kindergarten Andau", "building": null, "at_bev:addr_date": null, "addr:street": null, "addr:postcode": null, "addr:housenumber": null, "addr:country": null, "addr:city": null }, "geometry": { "type": "Point", "coordinates": [ 17.020277036711331, 47.772522860836922 ] } },
{ "type": "Feature", "properties": { "full_id": "w363918685", "osm_id": "363918685", "osm_type": "way", "amenity": "kindergarten", "addr:suburb": null, "religion": null, "isced:level": null, "opening_hours": null, "email": null, "alt_name": null, "ref:at:bda": null, "on_the_list:wikipedia": null, "on_the_list:wikidata": null, "heritage:operator": null, "heritage": null, "operator": null, "roof:levels": null, "building:levels": null, "check_date": null, "education": null, "toilets:wheelchair": null, "contact:phone": null, "start_date": null, "wheelchair": null, "addr:place": null, "phone": null, "website": null, "wikidata": null, "type": null, "name": "Kindergarten Lackenbach", "building": "yes", "at_bev:addr_date": "2020-10-01", "addr:street": "Wienerstraße", "addr:postcode": "7322", "addr:housenumber": "7", "addr:country": "AT", "addr:city": "Lackenbach" }, "geometry": { "type": "Point", "coordinates": [ 16.462618259563705, 47.587982230966205 ] } },
{ "type": "Feature", "properties": { "full_id": "w365039504", "osm_id": "365039504", "osm_type": "way", "amenity": "kindergarten", "addr:suburb": null, "religion": null, "isced:level": null, "opening_hours": null, "email": null, "alt_name": null, "ref:at:bda": null, "on_the_list:wikipedia": null, "on_the_list:wikidata": null, "heritage:operator": null, "heritage": null, "operator": null, "roof:levels": null, "building:levels": null, "check_date": null, "education": null, "toilets:wheelchair": null, "contact:phone": null, "start_date": null, "wheelchair": null, "addr:place": null, "phone": null, "website": null, "wikidata": null, "type": null, "name": null, "building": "yes", "at_bev:addr_date": null, "addr:street": null, "addr:postcode": null, "addr:housenumber": null, "addr:country": null, "addr:city": null }, "geometry": { "type": "Point", "coordinates": [ 16.987568148279749, 48.097460554514001 ] } },
{ "type": "Feature", "properties": { "full_id": "w390842306", "osm_id": "390842306", "osm_type": "way", "amenity": "kindergarten", "addr:suburb": null, "religion": null, "isced:level": null, "opening_hours": "Mo-Fr 07:00-17:00", "email": null, "alt_name": null, "ref:at:bda": null, "on_the_list:wikipedia": null, "on_the_list:wikidata": null, "heritage:operator": null, "heritage": null, "operator": null, "roof:levels": null, "building:levels": null, "check_date": "2025-06-17", "education": null, "toilets:wheelchair": null, "contact:phone": null, "start_date": null, "wheelchair": null, "addr:place": null, "phone": "+43 2682 22110", "website": null, "wikidata": null, "type": null, "name": "Städtischer Kinderkrippe und Kindergarten Ing. Alois Schwarz-Platz", "building": "yes", "at_bev:addr_date": null, "addr:street": "Ing. Alois Schwarz-Platz", "addr:postcode": null, "addr:housenumber": "1", "addr:country": "AT", "addr:city": "Eisenstadt" }, "geometry": { "type": "Point", "coordinates": [ 16.529129450713238, 47.842168312050887 ] } },
{ "type": "Feature", "properties": { "full_id": "w396010852", "osm_id": "396010852", "osm_type": "way", "amenity": "kindergarten", "addr:suburb": null, "religion": null, "isced:level": null, "opening_hours": null, "email": null, "alt_name": null, "ref:at:bda": null, "on_the_list:wikipedia": null, "on_the_list:wikidata": null, "heritage:operator": null, "heritage": null, "operator": "Caritas", "roof:levels": null, "building:levels": null, "check_date": null, "education": null, "toilets:wheelchair": null, "contact:phone": null, "start_date": null, "wheelchair": null, "addr:place": "Deutsch Tschantschendorf", "phone": null, "website": null, "wikidata": null, "type": null, "name": null, "building": null, "at_bev:addr_date": null, "addr:street": null, "addr:postcode": "7544", "addr:housenumber": "2", "addr:country": "AT", "addr:city": "Tobaj" }, "geometry": { "type": "Point", "coordinates": [ 16.287058704492967, 47.109008876965703 ] } },
{ "type": "Feature", "properties": { "full_id": "w401636458", "osm_id": "401636458", "osm_type": "way", "amenity": "kindergarten", "addr:suburb": null, "religion": null, "isced:level": null, "opening_hours": null, "email": null, "alt_name": null, "ref:at:bda": null, "on_the_list:wikipedia": null, "on_the_list:wikidata": null, "heritage:operator": null, "heritage": null, "operator": null, "roof:levels": null, "building:levels": null, "check_date": null, "education": null, "toilets:wheelchair": null, "contact:phone": null, "start_date": null, "wheelchair": null, "addr:place": null, "phone": null, "website": null, "wikidata": null, "type": null, "name": "Kindergarten Hochstraße", "building": null, "at_bev:addr_date": null, "addr:street": "Hochstraße", "addr:postcode": "7210", "addr:housenumber": "43", "addr:country": null, "addr:city": "Mattersburg" }, "geometry": { "type": "Point", "coordinates": [ 16.397627089707346, 47.734086952442127 ] } },
{ "type": "Feature", "properties": { "full_id": "w401636863", "osm_id": "401636863", "osm_type": "way", "amenity": "kindergarten", "addr:suburb": null, "religion": null, "isced:level": null, "opening_hours": null, "email": null, "alt_name": null, "ref:at:bda": null, "on_the_list:wikipedia": null, "on_the_list:wikidata": null, "heritage:operator": null, "heritage": null, "operator": null, "roof:levels": null, "building:levels": null, "check_date": "2023-06-24", "education": null, "toilets:wheelchair": null, "contact:phone": null, "start_date": null, "wheelchair": null, "addr:place": null, "phone": null, "website": null, "wikidata": null, "type": null, "name": "Kindergarten", "building": null, "at_bev:addr_date": null, "addr:street": "Hauptstraße", "addr:postcode": "7212", "addr:housenumber": "89a", "addr:country": null, "addr:city": "Forchtenstein" }, "geometry": { "type": "Point", "coordinates": [ 16.349762176001892, 47.713473302051476 ] } },
{ "type": "Feature", "properties": { "full_id": "w424378809", "osm_id": "424378809", "osm_type": "way", "amenity": "kindergarten", "addr:suburb": null, "religion": null, "isced:level": null, "opening_hours": null, "email": null, "alt_name": null, "ref:at:bda": null, "on_the_list:wikipedia": null, "on_the_list:wikidata": null, "heritage:operator": null, "heritage": null, "operator": null, "roof:levels": null, "building:levels": null, "check_date": null, "education": null, "toilets:wheelchair": null, "contact:phone": null, "start_date": null, "wheelchair": null, "addr:place": null, "phone": null, "website": null, "wikidata": null, "type": null, "name": null, "building": null, "at_bev:addr_date": null, "addr:street": "Schulzeile", "addr:postcode": "7121", "addr:housenumber": "23", "addr:country": null, "addr:city": "Weiden am See" }, "geometry": { "type": "Point", "coordinates": [ 16.868061670383508, 47.929583870497986 ] } },
{ "type": "Feature", "properties": { "full_id": "w450707648", "osm_id": "450707648", "osm_type": "way", "amenity": "kindergarten", "addr:suburb": null, "religion": null, "isced:level": "0", "opening_hours": null, "email": null, "alt_name": null, "ref:at:bda": null, "on_the_list:wikipedia": null, "on_the_list:wikidata": null, "heritage:operator": null, "heritage": null, "operator": null, "roof:levels": null, "building:levels": null, "check_date": null, "education": null, "toilets:wheelchair": null, "contact:phone": "+43 3356 656", "start_date": null, "wheelchair": null, "addr:place": null, "phone": null, "website": "https://www.kindergarten-wolfau.at/", "wikidata": null, "type": null, "name": null, "building": "yes", "at_bev:addr_date": "2019-04-01", "addr:street": "Hauptstraße", "addr:postcode": "7412", "addr:housenumber": "47", "addr:country": "AT", "addr:city": "Wolfau" }, "geometry": { "type": "Point", "coordinates": [ 16.090955125714387, 47.25547612515583 ] } },
{ "type": "Feature", "properties": { "full_id": "w461426033", "osm_id": "461426033", "osm_type": "way", "amenity": "kindergarten", "addr:suburb": null, "religion": null, "isced:level": null, "opening_hours": null, "email": null, "alt_name": null, "ref:at:bda": null, "on_the_list:wikipedia": null, "on_the_list:wikidata": null, "heritage:operator": null, "heritage": null, "operator": null, "roof:levels": null, "building:levels": null, "check_date": null, "education": null, "toilets:wheelchair": null, "contact:phone": null, "start_date": null, "wheelchair": null, "addr:place": null, "phone": null, "website": null, "wikidata": null, "type": null, "name": "Kindergarten Mühlgasse", "building": "yes", "at_bev:addr_date": "2019-10-01", "addr:street": "Mühlgasse", "addr:postcode": "7210", "addr:housenumber": "17a", "addr:country": "AT", "addr:city": "Mattersburg" }, "geometry": { "type": "Point", "coordinates": [ 16.387260815600378, 47.733332220256585 ] } },
{ "type": "Feature", "properties": { "full_id": "w464979100", "osm_id": "464979100", "osm_type": "way", "amenity": "kindergarten", "addr:suburb": null, "religion": null, "isced:level": null, "opening_hours": null, "email": null, "alt_name": null, "ref:at:bda": null, "on_the_list:wikipedia": null, "on_the_list:wikidata": null, "heritage:operator": null, "heritage": null, "operator": null, "roof:levels": null, "building:levels": null, "check_date": null, "education": null, "toilets:wheelchair": null, "contact:phone": null, "start_date": null, "wheelchair": null, "addr:place": null, "phone": null, "website": null, "wikidata": null, "type": null, "name": "Kindergarten", "building": "yes", "at_bev:addr_date": "2019-04-01", "addr:street": "Walbersdorf Marzerstraße", "addr:postcode": "7210", "addr:housenumber": "1a", "addr:country": "AT", "addr:city": "Mattersburg" }, "geometry": { "type": "Point", "coordinates": [ 16.419141748476235, 47.739498385261086 ] } },
{ "type": "Feature", "properties": { "full_id": "w478884865", "osm_id": "478884865", "osm_type": "way", "amenity": "kindergarten", "addr:suburb": null, "religion": null, "isced:level": null, "opening_hours": null, "email": null, "alt_name": null, "ref:at:bda": null, "on_the_list:wikipedia": null, "on_the_list:wikidata": null, "heritage:operator": null, "heritage": null, "operator": "Landeshauptstadt Freistadt Eisenstadt", "roof:levels": null, "building:levels": null, "check_date": null, "education": null, "toilets:wheelchair": null, "contact:phone": null, "start_date": null, "wheelchair": null, "addr:place": null, "phone": null, "website": null, "wikidata": null, "type": null, "name": "Kindergarten St. Georgen", "building": "yes", "at_bev:addr_date": null, "addr:street": "Am Graben", "addr:postcode": "7000", "addr:housenumber": "1", "addr:country": null, "addr:city": "Eisenstadt" }, "geometry": { "type": "Point", "coordinates": [ 16.553369971067628, 47.855466588513693 ] } },
{ "type": "Feature", "properties": { "full_id": "w484978721", "osm_id": "484978721", "osm_type": "way", "amenity": "kindergarten", "addr:suburb": null, "religion": "christian", "isced:level": null, "opening_hours": null, "email": null, "alt_name": null, "ref:at:bda": null, "on_the_list:wikipedia": null, "on_the_list:wikidata": null, "heritage:operator": null, "heritage": null, "operator": null, "roof:levels": null, "building:levels": null, "check_date": null, "education": null, "toilets:wheelchair": null, "contact:phone": null, "start_date": null, "wheelchair": null, "addr:place": null, "phone": null, "website": null, "wikidata": null, "type": null, "name": null, "building": null, "at_bev:addr_date": null, "addr:street": null, "addr:postcode": null, "addr:housenumber": null, "addr:country": null, "addr:city": null }, "geometry": { "type": "Point", "coordinates": [ 16.975529340403419, 47.872327301859869 ] } },
{ "type": "Feature", "properties": { "full_id": "w490479906", "osm_id": "490479906", "osm_type": "way", "amenity": "kindergarten", "addr:suburb": null, "religion": null, "isced:level": null, "opening_hours": null, "email": null, "alt_name": null, "ref:at:bda": null, "on_the_list:wikipedia": null, "on_the_list:wikidata": null, "heritage:operator": null, "heritage": null, "operator": null, "roof:levels": null, "building:levels": null, "check_date": null, "education": null, "toilets:wheelchair": null, "contact:phone": null, "start_date": null, "wheelchair": null, "addr:place": null, "phone": null, "website": null, "wikidata": null, "type": null, "name": "Kindergarten", "building": null, "at_bev:addr_date": null, "addr:street": null, "addr:postcode": null, "addr:housenumber": null, "addr:country": null, "addr:city": null }, "geometry": { "type": "Point", "coordinates": [ 16.077580700800027, 47.33268119784654 ] } },
{ "type": "Feature", "properties": { "full_id": "w547445903", "osm_id": "547445903", "osm_type": "way", "amenity": "kindergarten", "addr:suburb": null, "religion": null, "isced:level": null, "opening_hours": null, "email": null, "alt_name": null, "ref:at:bda": null, "on_the_list:wikipedia": null, "on_the_list:wikidata": null, "heritage:operator": null, "heritage": null, "operator": null, "roof:levels": null, "building:levels": null, "check_date": null, "education": null, "toilets:wheelchair": null, "contact:phone": null, "start_date": null, "wheelchair": null, "addr:place": null, "phone": null, "website": null, "wikidata": null, "type": null, "name": null, "building": null, "at_bev:addr_date": null, "addr:street": null, "addr:postcode": null, "addr:housenumber": null, "addr:country": null, "addr:city": null }, "geometry": { "type": "Point", "coordinates": [ 16.429088802693904, 47.916819462536345 ] } },
{ "type": "Feature", "properties": { "full_id": "w547988983", "osm_id": "547988983", "osm_type": "way", "amenity": "kindergarten", "addr:suburb": null, "religion": null, "isced:level": null, "opening_hours": null, "email": null, "alt_name": null, "ref:at:bda": null, "on_the_list:wikipedia": null, "on_the_list:wikidata": null, "heritage:operator": null, "heritage": null, "operator": "Gemeinde Parndorf", "roof:levels": null, "building:levels": null, "check_date": null, "education": null, "toilets:wheelchair": null, "contact:phone": null, "start_date": null, "wheelchair": null, "addr:place": null, "phone": "+43 2166 21346", "website": null, "wikidata": null, "type": null, "name": "Kindergarten Zieselweg", "building": null, "at_bev:addr_date": null, "addr:street": "Zieselweg", "addr:postcode": "7111", "addr:housenumber": "3", "addr:country": null, "addr:city": "Parndorf" }, "geometry": { "type": "Point", "coordinates": [ 16.867587440170119, 47.997301370983649 ] } },
{ "type": "Feature", "properties": { "full_id": "w573526128", "osm_id": "573526128", "osm_type": "way", "amenity": "kindergarten", "addr:suburb": "Klostermarienberg", "religion": null, "isced:level": null, "opening_hours": null, "email": null, "alt_name": null, "ref:at:bda": null, "on_the_list:wikipedia": null, "on_the_list:wikidata": null, "heritage:operator": null, "heritage": null, "operator": null, "roof:levels": null, "building:levels": null, "check_date": null, "education": null, "toilets:wheelchair": null, "contact:phone": null, "start_date": null, "wheelchair": null, "addr:place": null, "phone": null, "website": null, "wikidata": null, "type": null, "name": null, "building": "yes", "at_bev:addr_date": "2020-10-01", "addr:street": "Schulgasse", "addr:postcode": "7444", "addr:housenumber": "4", "addr:country": "AT", "addr:city": "Mannersdorf an der Rabnitz" }, "geometry": { "type": "Point", "coordinates": [ 16.563917136186795, 47.420935091019658 ] } },
{ "type": "Feature", "properties": { "full_id": "w617660676", "osm_id": "617660676", "osm_type": "way", "amenity": "kindergarten", "addr:suburb": null, "religion": null, "isced:level": null, "opening_hours": null, "email": null, "alt_name": null, "ref:at:bda": null, "on_the_list:wikipedia": null, "on_the_list:wikidata": null, "heritage:operator": null, "heritage": null, "operator": null, "roof:levels": null, "building:levels": null, "check_date": null, "education": null, "toilets:wheelchair": null, "contact:phone": null, "start_date": null, "wheelchair": null, "addr:place": null, "phone": null, "website": null, "wikidata": null, "type": null, "name": null, "building": "yes", "at_bev:addr_date": "2018-10-01", "addr:street": "Siegendorfer Straße", "addr:postcode": "7062", "addr:housenumber": "23a", "addr:country": "AT", "addr:city": "Sankt Margarethen im Burgenland" }, "geometry": { "type": "Point", "coordinates": [ 16.604157267619158, 47.800931875004885 ] } },
{ "type": "Feature", "properties": { "full_id": "w631062136", "osm_id": "631062136", "osm_type": "way", "amenity": "kindergarten", "addr:suburb": null, "religion": null, "isced:level": null, "opening_hours": null, "email": null, "alt_name": null, "ref:at:bda": null, "on_the_list:wikipedia": null, "on_the_list:wikidata": null, "heritage:operator": null, "heritage": null, "operator": null, "roof:levels": null, "building:levels": null, "check_date": null, "education": null, "toilets:wheelchair": null, "contact:phone": null, "start_date": null, "wheelchair": null, "addr:place": null, "phone": null, "website": null, "wikidata": null, "type": null, "name": null, "building": null, "at_bev:addr_date": null, "addr:street": null, "addr:postcode": null, "addr:housenumber": null, "addr:country": null, "addr:city": null }, "geometry": { "type": "Point", "coordinates": [ 17.035413379591031, 48.048732334490694 ] } },
{ "type": "Feature", "properties": { "full_id": "w648521326", "osm_id": "648521326", "osm_type": "way", "amenity": "kindergarten", "addr:suburb": null, "religion": null, "isced:level": null, "opening_hours": null, "email": null, "alt_name": null, "ref:at:bda": null, "on_the_list:wikipedia": null, "on_the_list:wikidata": null, "heritage:operator": null, "heritage": null, "operator": null, "roof:levels": null, "building:levels": null, "check_date": null, "education": null, "toilets:wheelchair": null, "contact:phone": null, "start_date": null, "wheelchair": null, "addr:place": null, "phone": null, "website": null, "wikidata": null, "type": null, "name": null, "building": null, "at_bev:addr_date": null, "addr:street": null, "addr:postcode": null, "addr:housenumber": null, "addr:country": null, "addr:city": null }, "geometry": { "type": "Point", "coordinates": [ 16.843018364332632, 47.950797227234943 ] } },
{ "type": "Feature", "properties": { "full_id": "w659275776", "osm_id": "659275776", "osm_type": "way", "amenity": "kindergarten", "addr:suburb": null, "religion": null, "isced:level": null, "opening_hours": null, "email": null, "alt_name": null, "ref:at:bda": null, "on_the_list:wikipedia": null, "on_the_list:wikidata": null, "heritage:operator": null, "heritage": null, "operator": null, "roof:levels": null, "building:levels": null, "check_date": null, "education": null, "toilets:wheelchair": null, "contact:phone": null, "start_date": null, "wheelchair": null, "addr:place": null, "phone": null, "website": null, "wikidata": null, "type": null, "name": "Kindergruppe", "building": null, "at_bev:addr_date": null, "addr:street": null, "addr:postcode": null, "addr:housenumber": null, "addr:country": null, "addr:city": null }, "geometry": { "type": "Point", "coordinates": [ 16.465773916293323, 47.847376873593312 ] } },
{ "type": "Feature", "properties": { "full_id": "w863107471", "osm_id": "863107471", "osm_type": "way", "amenity": "kindergarten", "addr:suburb": null, "religion": null, "isced:level": null, "opening_hours": null, "email": null, "alt_name": null, "ref:at:bda": null, "on_the_list:wikipedia": null, "on_the_list:wikidata": null, "heritage:operator": null, "heritage": null, "operator": null, "roof:levels": null, "building:levels": null, "check_date": null, "education": null, "toilets:wheelchair": null, "contact:phone": null, "start_date": null, "wheelchair": null, "addr:place": null, "phone": null, "website": null, "wikidata": null, "type": null, "name": null, "building": null, "at_bev:addr_date": null, "addr:street": null, "addr:postcode": null, "addr:housenumber": null, "addr:country": null, "addr:city": null }, "geometry": { "type": "Point", "coordinates": [ 17.009090043555339, 47.978141334404427 ] } },
{ "type": "Feature", "properties": { "full_id": "w1102673158", "osm_id": "1102673158", "osm_type": "way", "amenity": "kindergarten", "addr:suburb": null, "religion": null, "isced:level": null, "opening_hours": null, "email": null, "alt_name": null, "ref:at:bda": null, "on_the_list:wikipedia": null, "on_the_list:wikidata": null, "heritage:operator": null, "heritage": null, "operator": null, "roof:levels": null, "building:levels": null, "check_date": null, "education": null, "toilets:wheelchair": null, "contact:phone": null, "start_date": null, "wheelchair": null, "addr:place": null, "phone": null, "website": null, "wikidata": null, "type": null, "name": null, "building": null, "at_bev:addr_date": null, "addr:street": null, "addr:postcode": null, "addr:housenumber": null, "addr:country": null, "addr:city": null }, "geometry": { "type": "Point", "coordinates": [ 16.226686597138954, 47.334008095207984 ] } },
{ "type": "Feature", "properties": { "full_id": "w1160618630", "osm_id": "1160618630", "osm_type": "way", "amenity": "kindergarten", "addr:suburb": null, "religion": null, "isced:level": null, "opening_hours": null, "email": null, "alt_name": null, "ref:at:bda": null, "on_the_list:wikipedia": null, "on_the_list:wikidata": null, "heritage:operator": null, "heritage": null, "operator": null, "roof:levels": null, "building:levels": null, "check_date": null, "education": null, "toilets:wheelchair": null, "contact:phone": null, "start_date": null, "wheelchair": null, "addr:place": null, "phone": null, "website": null, "wikidata": null, "type": null, "name": null, "building": null, "at_bev:addr_date": null, "addr:street": null, "addr:postcode": null, "addr:housenumber": null, "addr:country": null, "addr:city": null }, "geometry": { "type": "Point", "coordinates": [ 16.758363036011897, 47.951204637137899 ] } },
{ "type": "Feature", "properties": { "full_id": "w1163674301", "osm_id": "1163674301", "osm_type": "way", "amenity": "kindergarten", "addr:suburb": null, "religion": null, "isced:level": null, "opening_hours": null, "email": null, "alt_name": null, "ref:at:bda": null, "on_the_list:wikipedia": null, "on_the_list:wikidata": null, "heritage:operator": null, "heritage": null, "operator": null, "roof:levels": null, "building:levels": null, "check_date": null, "education": null, "toilets:wheelchair": null, "contact:phone": null, "start_date": null, "wheelchair": null, "addr:place": null, "phone": null, "website": null, "wikidata": null, "type": null, "name": null, "building": null, "at_bev:addr_date": null, "addr:street": null, "addr:postcode": null, "addr:housenumber": null, "addr:country": null, "addr:city": null }, "geometry": { "type": "Point", "coordinates": [ 16.197473979942014, 47.008442981117987 ] } },
{ "type": "Feature", "properties": { "full_id": "w1208840880", "osm_id": "1208840880", "osm_type": "way", "amenity": "kindergarten", "addr:suburb": null, "religion": null, "isced:level": null, "opening_hours": null, "email": null, "alt_name": null, "ref:at:bda": null, "on_the_list:wikipedia": null, "on_the_list:wikidata": null, "heritage:operator": null, "heritage": null, "operator": null, "roof:levels": null, "building:levels": null, "check_date": null, "education": null, "toilets:wheelchair": null, "contact:phone": null, "start_date": null, "wheelchair": null, "addr:place": null, "phone": null, "website": null, "wikidata": null, "type": null, "name": null, "building": null, "at_bev:addr_date": null, "addr:street": null, "addr:postcode": null, "addr:housenumber": null, "addr:country": null, "addr:city": null }, "geometry": { "type": "Point", "coordinates": [ 16.781659248110717, 48.017297420974359 ] } },
{ "type": "Feature", "properties": { "full_id": "w1212822441", "osm_id": "1212822441", "osm_type": "way", "amenity": "kindergarten", "addr:suburb": null, "religion": null, "isced:level": null, "opening_hours": null, "email": null, "alt_name": null, "ref:at:bda": null, "on_the_list:wikipedia": null, "on_the_list:wikidata": null, "heritage:operator": null, "heritage": null, "operator": null, "roof:levels": null, "building:levels": null, "check_date": null, "education": null, "toilets:wheelchair": null, "contact:phone": null, "start_date": null, "wheelchair": null, "addr:place": null, "phone": null, "website": null, "wikidata": null, "type": null, "name": "Kindergarten Güssing", "building": null, "at_bev:addr_date": null, "addr:street": null, "addr:postcode": null, "addr:housenumber": null, "addr:country": null, "addr:city": null }, "geometry": { "type": "Point", "coordinates": [ 16.3185301326128, 47.056092775065764 ] } },
{ "type": "Feature", "properties": { "full_id": "w1242607894", "osm_id": "1242607894", "osm_type": "way", "amenity": "kindergarten", "addr:suburb": null, "religion": null, "isced:level": null, "opening_hours": null, "email": null, "alt_name": null, "ref:at:bda": null, "on_the_list:wikipedia": null, "on_the_list:wikidata": null, "heritage:operator": null, "heritage": null, "operator": null, "roof:levels": null, "building:levels": null, "check_date": null, "education": null, "toilets:wheelchair": null, "contact:phone": null, "start_date": null, "wheelchair": null, "addr:place": null, "phone": null, "website": null, "wikidata": null, "type": null, "name": "Storchennest", "building": null, "at_bev:addr_date": null, "addr:street": null, "addr:postcode": null, "addr:housenumber": null, "addr:country": null, "addr:city": null }, "geometry": { "type": "Point", "coordinates": [ 16.826139606687654, 47.95566669254498 ] } }
]
}
